start=new Date('2021-08-27T00:00:00.000Z').valueOf();
sats=[{"OBJECT_TYPE":"PAYLOAD","DECAY_DATE":null,"MEAN_MOTION_DOT":"-0.00000755","EPOCH":"2021-08-26T13:15:38.290464","MEAN_MOTION_DDOT":"0.0000000000000","ELEMENT_SET_NO":"999","NORAD_CAT_ID":"45571","ECCENTRICITY":"0.00009410","ARG_OF_PERICENTER":"124.4429","SITE":"AFETR","GP_ID":"183496131","MEAN_ANOMALY":"235.6649","FILE":"3103480","APOAPSIS":"547.879","EPHEMERIS_TYPE":"0","PERIOD":"95.592","TLE_LINE2":"2 45571  53.0553 311.3201 0000941 124.4429 235.6649 15.06395449 75908","CLASSIFICATION_TYPE":"U","REF_FRAME":"TEME","RCS_SIZE":"LARGE","LAUNCH_DATE":"2020-04-22","SEMIMAJOR_AXIS":"6925.363","TLE_LINE1":"1 45571U 20025AS  21238.55252651 -.00000755  00000-0 -31789-4 0  9999","MEAN_ELEMENT_THEORY":"SGP4","REV_AT_EPOCH":"7590","BSTAR":"-0.00003178900000","TIME_SYSTEM":"UTC","OBJECT_ID":"2020-025AS","COUNTRY_CODE":"US","INCLINATION":"53.0553","OBJECT_NAME":"STARLINK-1261","PERIAPSIS":"546.576","CENTER_NAME":"EARTH","MEAN_MOTION":"15.06395449","RA_OF_ASC_NODE":"311.3201"},{"MEAN_MOTION":"15.06395133","PERIAPSIS":"546.632","CENTER_NAME":"EARTH","RA_OF_ASC_NODE":"311.3526","OBJECT_ID":"2020-025AT","TIME_SYSTEM":"UTC","REV_AT_EPOCH":"7589","BSTAR":"-0.00005401400000","OBJECT_NAME":"STARLINK-1320","INCLINATION":"53.0552","COUNTRY_CODE":"US","REF_FRAME":"TEME","RCS_SIZE":"LARGE","CLASSIFICATION_TYPE":"U","TLE_LINE2":"2 45572  53.0552 311.3526 0000862 119.3755 240.7320 15.06395133 75896","PERIOD":"95.592","APOAPSIS":"547.825","EPHEMERIS_TYPE":"0","MEAN_ELEMENT_THEORY":"SGP4","TLE_LINE1":"1 45572U 20025AT  21238.54515328 -.00001086  00000-0 -54014-4 0  9996","LAUNCH_DATE":"2020-04-22","SEMIMAJOR_AXIS":"6925.363","EPOCH":"2021-08-26T13:05:01.243392","MEAN_MOTION_DOT":"-0.00001086","DECAY_DATE":null,"OBJECT_TYPE":"PAYLOAD","SITE":"AFETR","GP_ID":"183472154","MEAN_ANOMALY":"240.7320","FILE":"3103463","ECCENTRICITY":"0.00008620","ARG_OF_PERICENTER":"119.3755","NORAD_CAT_ID":"45572","MEAN_MOTION_DDOT":"0.0000000000000","ELEMENT_SET_NO":"999"},{"RA_OF_ASC_NODE":"311.4462","MEAN_MOTION":"15.06413477","CENTER_NAME":"EARTH","PERIAPSIS":"546.451","OBJECT_NAME":"STARLINK-1321","INCLINATION":"53.0549","COUNTRY_CODE":"US","OBJECT_ID":"2020-025AU","TIME_SYSTEM":"UTC","BSTAR":"0.00020519000000","REV_AT_EPOCH":"7558","MEAN_ELEMENT_THEORY":"SGP4","TLE_LINE1":"1 45573U 20025AU  21238.52302562  .00002777  00000-0  20519-3 0  9997","SEMIMAJOR_AXIS":"6925.307","LAUNCH_DATE":"2020-04-22","RCS_SIZE":"LARGE","REF_FRAME":"TEME","CLASSIFICATION_TYPE":"U","TLE_LINE2":"2 45573  53.0549 311.4462 0001041  91.4592 268.6516 15.06413477 75586","PERIOD":"95.591","EPHEMERIS_TYPE":"0","APOAPSIS":"547.893","FILE":"3103463","MEAN_ANOMALY":"268.6516","GP_ID":"183472406","SITE":"AFETR","ARG_OF_PERICENTER":"91.4592","ECCENTRICITY":"0.00010410","NORAD_CAT_ID":"45573","ELEMENT_SET_NO":"999","MEAN_MOTION_DDOT":"0.0000000000000","EPOCH":"2021-08-26T12:33:09.413568","MEAN_MOTION_DOT":"0.00002777","DECAY_DATE":null,"OBJECT_TYPE":"PAYLOAD"},{"MEAN_MOTION":"15.06400690","PERIAPSIS":"546.530","CENTER_NAME":"EARTH","RA_OF_ASC_NODE":"311.3320","TIME_SYSTEM":"UTC","OBJECT_ID":"2020-025AV","REV_AT_EPOCH":"7590","BSTAR":"0.00016206000000","INCLINATION":"53.0553","OBJECT_NAME":"STARLINK-1324","COUNTRY_CODE":"US","CLASSIFICATION_TYPE":"U","TLE_LINE2":"2 45574  53.0553 311.3320 0000984 111.0533 249.0562 15.06400690 75906","REF_FRAME":"TEME","RCS_SIZE":"LARGE","APOAPSIS":"547.893","EPHEMERIS_TYPE":"0","PERIOD":"95.592","TLE_LINE1":"1 45574U 20025AV  21238.54885190  .00002133  00000-0  16206-3 0  9997","MEAN_ELEMENT_THEORY":"SGP4","LAUNCH_DATE":"2020-04-22","SEMIMAJOR_AXIS":"6925.346","MEAN_MOTION_DOT":"0.00002133","EPOCH":"2021-08-26T13:10:20.804160","OBJECT_TYPE":"PAYLOAD","DECAY_DATE":null,"ECCENTRICITY":"0.00009840","ARG_OF_PERICENTER":"111.0533","GP_ID":"183473152","MEAN_ANOMALY":"249.0562","SITE":"AFETR","FILE":"3103463","MEAN_MOTION_DDOT":"0.0000000000000","ELEMENT_SET_NO":"999","NORAD_CAT_ID":"45574"},{"TLE_LINE1":"1 45575U 20025AW  21238.50146074  .00002345  00000-0  17076-3 0  9996","MEAN_ELEMENT_THEORY":"SGP4","SEMIMAJOR_AXIS":"6921.613","LAUNCH_DATE":"2020-04-22","RCS_SIZE":"LARGE","REF_FRAME":"TEME","TLE_LINE2":"2 45575  53.0018 309.0726 0000996  89.6664 270.4439 15.07619566 75912","CLASSIFICATION_TYPE":"U","PERIOD":"95.515","EPHEMERIS_TYPE":"0","APOAPSIS":"544.168","FILE":"3103463","MEAN_ANOMALY":"270.4439","GP_ID":"183471904","SITE":"AFETR","ARG_OF_PERICENTER":"89.6664","ECCENTRICITY":"0.00009960","NORAD_CAT_ID":"45575","ELEMENT_SET_NO":"999","MEAN_MOTION_DDOT":"0.0000000000000","EPOCH":"2021-08-26T12:02:06.207936","MEAN_MOTION_DOT":"0.00002345","DECAY_DATE":null,"OBJECT_TYPE":"PAYLOAD","RA_OF_ASC_NODE":"309.0726","MEAN_MOTION":"15.07619566","CENTER_NAME":"EARTH","PERIAPSIS":"542.789","OBJECT_NAME":"STARLINK-1326","INCLINATION":"53.0018","COUNTRY_CODE":"US","OBJECT_ID":"2020-025AW","TIME_SYSTEM":"UTC","BSTAR":"0.00017076000000","REV_AT_EPOCH":"7591"},{"ELEMENT_SET_NO":"999","MEAN_MOTION_DDOT":"0.0000000000000","NORAD_CAT_ID":"45576","ARG_OF_PERICENTER":"104.2923","ECCENTRICITY":"0.00008250","FILE":"3103463","SITE":"AFETR","GP_ID":"183471655","MEAN_ANOMALY":"255.8157","OBJECT_TYPE":"PAYLOAD","DECAY_DATE":null,"MEAN_MOTION_DOT":"0.00000842","EPOCH":"2021-08-26T12:11:57.545952","SEMIMAJOR_AXIS":"6925.369","LAUNCH_DATE":"2020-04-22","TLE_LINE1":"1 45576U 20025AX  21238.50830493  .00000842  00000-0  75395-4 0  9991","MEAN_ELEMENT_THEORY":"SGP4","EPHEMERIS_TYPE":"0","APOAPSIS":"547.805","PERIOD":"95.593","CLASSIFICATION_TYPE":"U","TLE_LINE2":"2 45576  53.0544 311.5168 0000825 104.2923 255.8157 15.06393477 75898","RCS_SIZE":"LARGE","REF_FRAME":"TEME","COUNTRY_CODE":"US","INCLINATION":"53.0544","OBJECT_NAME":"STARLINK-1328","BSTAR":"0.00007539500000","REV_AT_EPOCH":"7589","TIME_SYSTEM":"UTC","OBJECT_ID":"2020-025AX","RA_OF_ASC_NODE":"311.5168","CENTER_NAME":"EARTH","PERIAPSIS":"546.662","MEAN_MOTION":"15.06393477"},{"MEAN_MOTION_DOT":"0.00000988","EPOCH":"2021-08-26T11:08:14.974944","OBJECT_TYPE":"PAYLOAD","DECAY_DATE":null,"ECCENTRICITY":"0.00010380","ARG_OF_PERICENTER":"108.8901","GP_ID":"183472906","MEAN_ANOMALY":"251.2200","SITE":"AFETR","FILE":"3103463","ELEMENT_SET_NO":"999","MEAN_MOTION_DDOT":"0.0000000000000","NORAD_CAT_ID":"45577","TLE_LINE2":"2 45577  53.0559 311.7134 0001038 108.8901 251.2200 15.06402097 75879","CLASSIFICATION_TYPE":"U","REF_FRAME":"TEME","RCS_SIZE":"LARGE","APOAPSIS":"547.926","EPHEMERIS_TYPE":"0","PERIOD":"95.592","MEAN_ELEMENT_THEORY":"SGP4","TLE_LINE1":"1 45577U 20025AY  21238.46406221  .00000988  00000-0  85178-4 0  9996","LAUNCH_DATE":"2020-04-22","SEMIMAJOR_AXIS":"6925.342","TIME_SYSTEM":"UTC","OBJECT_ID":"2020-025AY","REV_AT_EPOCH":"7587","BSTAR":"0.00008517800000","INCLINATION":"53.0559","OBJECT_NAME":"STARLINK-1330","COUNTRY_CODE":"US","MEAN_MOTION":"15.06402097","PERIAPSIS":"546.488","CENTER_NAME":"EARTH","RA_OF_ASC_NODE":"311.7134"},{"INCLINATION":"53.0557","OBJECT_NAME":"STARLINK-1331","COUNTRY_CODE":"US","TIME_SYSTEM":"UTC","OBJECT_ID":"2020-025AZ","REV_AT_EPOCH":"7589","BSTAR":"-0.00004345200000","RA_OF_ASC_NODE":"311.5450","MEAN_MOTION":"15.06396745","PERIAPSIS":"546.532","CENTER_NAME":"EARTH","ECCENTRICITY":"0.00009980","ARG_OF_PERICENTER":"100.7795","GP_ID":"183472653","SITE":"AFETR","MEAN_ANOMALY":"259.3306","FILE":"3103463","ELEMENT_SET_NO":"999","MEAN_MOTION_DDOT":"0.0000000000000","NORAD_CAT_ID":"45578","MEAN_MOTION_DOT":"-0.00000928","EPOCH":"2021-08-26T12:01:19.882848","OBJECT_TYPE":"PAYLOAD","DECAY_DATE":null,"TLE_LINE1":"1 45578U 20025AZ  21238.50092457 -.00000928  00000-0 -43452-4 0  9999","MEAN_ELEMENT_THEORY":"SGP4","LAUNCH_DATE":"2020-04-22","SEMIMAJOR_AXIS":"6925.359","TLE_LINE2":"2 45578  53.0557 311.5450 0000998 100.7795 259.3306 15.06396745 75893","CLASSIFICATION_TYPE":"U","REF_FRAME":"TEME","RCS_SIZE":"LARGE","APOAPSIS":"547.915","EPHEMERIS_TYPE":"0","PERIOD":"95.592"},{"RA_OF_ASC_NODE":"271.5841","CENTER_NAME":"EARTH","PERIAPSIS":"543.232","MEAN_MOTION":"15.06412361","COUNTRY_CODE":"US","OBJECT_NAME":"STARLINK-1332","INCLINATION":"53.0532","BSTAR":"0.00005105200000","REV_AT_EPOCH":"7644","OBJECT_ID":"2020-025BA","TIME_SYSTEM":"UTC","SEMIMAJOR_AXIS":"6925.311","LAUNCH_DATE":"2020-04-22","TLE_LINE1":"1 45579U 20025BA  21238.49261442  .00000478  00000-0  51052-4 0  9993","MEAN_ELEMENT_THEORY":"SGP4","PERIOD":"95.591","EPHEMERIS_TYPE":"0","APOAPSIS":"551.119","RCS_SIZE":"LARGE","REF_FRAME":"TEME","TLE_LINE2":"2 45579  53.0532 271.5841 0005694 167.7059 192.4070 15.06412361 76440","CLASSIFICATION_TYPE":"U","NORAD_CAT_ID":"45579","ELEMENT_SET_NO":"999","MEAN_MOTION_DDOT":"0.0000000000000","FILE":"3103463","GP_ID":"183471405","SITE":"AFETR","MEAN_ANOMALY":"192.4070","ARG_OF_PERICENTER":"167.7059","ECCENTRICITY":"0.00056940","DECAY_DATE":null,"OBJECT_TYPE":"PAYLOAD","EPOCH":"2021-08-26T11:49:21.885888","MEAN_MOTION_DOT":"0.00000478"},{"TLE_LINE2":"2 45580  53.0549 321.5175 0001086 103.2392 256.8718 15.06397627 75745","CLASSIFICATION_TYPE":"U","RCS_SIZE":"LARGE","REF_FRAME":"TEME","EPHEMERIS_TYPE":"0","APOAPSIS":"547.973","PERIOD":"95.592","TLE_LINE1":"1 45580U 20025BB  21238.50738576  .00001111  00000-0  93464-4 0  9992","MEAN_ELEMENT_THEORY":"SGP4","SEMIMAJOR_AXIS":"6925.356","LAUNCH_DATE":"2020-04-22","MEAN_MOTION_DOT":"0.00001111","EPOCH":"2021-08-26T12:10:38.129664","OBJECT_TYPE":"PAYLOAD","DECAY_DATE":null,"ARG_OF_PERICENTER":"103.2392","ECCENTRICITY":"0.00010860","FILE":"3103463","SITE":"AFETR","GP_ID":"183472155","MEAN_ANOMALY":"256.8718","MEAN_MOTION_DDOT":"0.0000000000000","ELEMENT_SET_NO":"999","NORAD_CAT_ID":"45580","MEAN_MOTION":"15.06397627","CENTER_NAME":"EARTH","PERIAPSIS":"546.469","RA_OF_ASC_NODE":"321.5175","TIME_SYSTEM":"UTC","OBJECT_ID":"2020-025BB","BSTAR":"0.00009346400000","REV_AT_EPOCH":"7574","INCLINATION":"53.0549","OBJECT_NAME":"STARLINK-1333","COUNTRY_CODE":"US"}];
